[
    {
        "Altitude(m)": 569314.5504166861,
        "Argument of Periapsis(deg)": 0.0,
        "Eccentricity": 0.0,
        "Inclination(deg)": 53.0,
        "Latitude(deg)": -46.773280174663654,
        "Longitude(deg)": -2.093885257599423,
        "Mean Anomaly(deg)": -114.5455,
        "RAAN(deg)": 225.0,
        "Satellite Name": "Starlink Shell 1 1005",
        "Satellite Number": 1005,
        "Semi-Major Axis(m)": 6931778.249405717,
        "Time(s)": 0
    },
    {
        "Altitude(m)": 569436.0474094513,
        "Argument of Periapsis(deg)": 0.00034857847951123687,
        "Eccentricity": 0.0,
        "Inclination(deg)": 53.0,
        "Latitude(deg)": -47.07209308271142,
        "Longitude(deg)": -1.3332837621513303,
        "Mean Anomaly(deg)": -113.91866879644337,
        "RAAN(deg)": 224.99948122992254,
        "Satellite Name": "Starlink Shell 1 1005",
        "Satellite Number": 1005,
        "Semi-Major Axis(m)": 6931778.249405717,
        "Time(s)": 10
    },
    {
        "Altitude(m)": 569555.0215692248,
        "Argument of Periapsis(deg)": 0.0006971569590224737,
        "Eccentricity": 0.0,
        "Inclination(deg)": 53.0,
        "Latitude(deg)": -47.36521090806866,
        "Longitude(deg)": -0.563774666096734,
        "Mean Anomaly(deg)": -113.2918375928866,
        "RAAN(deg)": 224.99896245984505,
        "Satellite Name": "Starlink Shell 1 1005",
        "Satellite Number": 1005,
        "Semi-Major Axis(m)": 6931778.249405717,
        "Time(s)": 20
    },
    {
        "Altitude(m)": 569671.4257962297,
        "Argument of Periapsis(deg)": 0.0010457354385337105,
        "Eccentricity": 0.0,
        "Inclination(deg)": 53.0,
        "Latitude(deg)": -47.65251312140339,
        "Longitude(deg)": 0.21465685646637198,
        "Mean Anomaly(deg)": -112.66500638932995,
        "RAAN(deg)": 224.99844368976758,
        "Satellite Name": "Starlink Shell 1 1005",
        "Satellite Number": 1005,
        "Semi-Major Axis(m)": 6931778.249405717,
        "Time(s)": 30
    },
    {
        "Altitude(m)": 569785.2139840395,
        "Argument of Periapsis(deg)": 0.0013943139180449475,
        "Eccentricity": 0.0,
        "Inclination(deg)": 53.0,
        "Latitude(deg)": -47.933878376026975,
        "Longitude(deg)": 1.0020161325198558,
        "Mean Anomaly(deg)": -112.03817518577308,
        "RAAN(deg)": 224.99792491969015,
        "Satellite Name": "Starlink Shell 1 1005",
        "Satellite Number": 1005,
        "Semi-Major Axis(m)": 6931778.249405717,
        "Time(s)": 40
    },
    {
        "Altitude(m)": 569896.3410397316,
        "Argument of Periapsis(deg)": 0.0017428923975561844,
        "Eccentricity": 0.0,
        "Inclination(deg)": 53.0,
        "Latitude(deg)": -48.20918464755549,
        "Longitude(deg)": 1.798297432773638,
        "Mean Anomaly(deg)": -111.41134398221641,
        "RAAN(deg)": 224.99740614961263,
        "Satellite Name": "Starlink Shell 1 1005",
        "Satellite Number": 1005,
        "Semi-Major Axis(m)": 6931778.249405717,
        "Time(s)": 50
    },
    {
        "Altitude(m)": 570004.7629035937,
        "Argument of Periapsis(deg)": 0.002091470877067421,
        "Eccentricity": 0.0,
        "Inclination(deg)": 53.0,
        "Latitude(deg)": -48.47830938440134,
        "Longitude(deg)": 2.6034839293546765,
        "Mean Anomaly(deg)": -110.78451277865976,
        "RAAN(deg)": 224.99688737953514,
        "Satellite Name": "Starlink Shell 1 1005",
        "Satellite Number": 1005,
        "Semi-Major Axis(m)": 6931778.249405717,
        "Time(s)": 60
    },
    {
        "Altitude(m)": 570110.43656838,
        "Argument of Periapsis(deg)": 0.0024400493565786582,
        "Eccentricity": 0.0,
        "Inclination(deg)": 53.0,
        "Latitude(deg)": -48.74112966921561,
        "Longitude(deg)": 3.4175476590446436,
        "Mean Anomaly(deg)": -110.15768157510301,
        "RAAN(deg)": 224.9963686094577,
        "Satellite Name": "Starlink Shell 1 1005",
        "Satellite Number": 1005,
        "Semi-Major Axis(m)": 6931778.249405717,
        "Time(s)": 70
    },
    {
        "Altitude(m)": 570213.3200980875,
        "Argument of Periapsis(deg)": 0.002788627836089895,
        "Eccentricity": 0.0,
        "Inclination(deg)": 53.0,
        "Latitude(deg)": -48.99752239133993,
        "Longitude(deg)": 4.240447982866212,
        "Mean Anomaly(deg)": -109.53085037154632,
        "RAAN(deg)": 224.99584983938018,
        "Satellite Name": "Starlink Shell 1 1005",
        "Satellite Number": 1005,
        "Semi-Major Axis(m)": 6931778.249405717,
        "Time(s)": 80
    },
    {
        "Altitude(m)": 570313.3726462484,
        "Argument of Periapsis(deg)": 0.0031372063156011316,
        "Eccentricity": 0.0,
        "Inclination(deg)": 53.0,
        "Latitude(deg)": -49.24736443024569,
        "Longitude(deg)": 5.072131571707966,
        "Mean Anomaly(deg)": -108.90401916798957,
        "RAAN(deg)": 224.99533106930275,
        "Satellite Name": "Starlink Shell 1 1005",
        "Satellite Number": 1005,
        "Semi-Major Axis(m)": 6931778.249405717,
        "Time(s)": 90
    },
    {
        "Altitude(m)": 570410.5544737562,
        "Argument of Periapsis(deg)": 0.0034857847951123688,
        "Eccentricity": 0.0,
        "Inclination(deg)": 53.0,
        "Latitude(deg)": -49.49053284986654,
        "Longitude(deg)": 5.912532409313644,
        "Mean Anomaly(deg)": -108.27718796443283,
        "RAAN(deg)": 224.9948122992253,
        "Satellite Name": "Starlink Shell 1 1005",
        "Satellite Number": 1005,
        "Semi-Major Axis(m)": 6931778.249405717,
        "Time(s)": 100
    },
    {
        "Altitude(m)": 570504.826966184,
        "Argument of Periapsis(deg)": 0.003834363274623606,
        "Eccentricity": 0.0,
        "Inclination(deg)": 53.0,
        "Latitude(deg)": -49.72690510364634,
        "Longitude(deg)": 6.7615703042018875,
        "Mean Anomaly(deg)": -107.65035676087616,
        "RAAN(deg)": 224.9942935291478,
        "Satellite Name": "Starlink Shell 1 1005",
        "Satellite Number": 1005,
        "Semi-Major Axis(m)": 6931778.249405717,
        "Time(s)": 110
    },
    {
        "Altitude(m)": 570596.1526506069,
        "Argument of Periapsis(deg)": 0.004182941754134842,
        "Eccentricity": 0.0,
        "Inclination(deg)": 53.0,
        "Latitude(deg)": -49.95635925002186,
        "Longitude(deg)": 7.619150940912896,
        "Mean Anomaly(deg)": -107.02352555731942,
        "RAAN(deg)": 224.99377475907033,
        "Satellite Name": "Starlink Shell 1 1005",
        "Satellite Number": 1005,
        "Semi-Major Axis(m)": 6931778.249405717,
        "Time(s)": 120
    },
    {
        "Altitude(m)": 570684.495211928,
        "Argument of Periapsis(deg)": 0.004531520233646079,
        "Eccentricity": 0.0,
        "Inclination(deg)": 53.0,
        "Latitude(deg)": -50.1787741779703,
        "Longitude(deg)": 8.4851659625327,
        "Mean Anomaly(deg)": -106.39669435376274,
        "RAAN(deg)": 224.99325598899287,
        "Satellite Name": "Starlink Shell 1 1005",
        "Satellite Number": 1005,
        "Semi-Major Axis(m)": 6931778.249405717,
        "Time(s)": 130
    },
    {
        "Altitude(m)": 570769.8195086793,
        "Argument of Periapsis(deg)": 0.0048800987131573164,
        "Eccentricity": 0.0,
        "Inclination(deg)": 53.0,
        "Latitude(deg)": -50.39402984214764,
        "Longitude(deg)": 9.359491576591408,
        "Mean Anomaly(deg)": -105.76986315020598,
        "RAAN(deg)": 224.99273721891538,
        "Satellite Name": "Starlink Shell 1 1005",
        "Satellite Number": 1005,
        "Semi-Major Axis(m)": 6931778.249405717,
        "Time(s)": 140
    },
    {
        "Altitude(m)": 570852.0915883209,
        "Argument of Periapsis(deg)": 0.005228677192668553,
        "Eccentricity": 0.0,
        "Inclination(deg)": 53.0,
        "Latitude(deg)": -50.60200750702567,
        "Longitude(deg)": 10.241988715135845,
        "Mean Anomaly(deg)": -105.14303194664923,
        "RAAN(deg)": 224.99221844883792,
        "Satellite Name": "Starlink Shell 1 1005",
        "Satellite Number": 1005,
        "Semi-Major Axis(m)": 6931778.249405717,
        "Time(s)": 150
    },
    {
        "Altitude(m)": 570931.2787019969,
        "Argument of Periapsis(deg)": 0.00557725567217979,
        "Eccentricity": 0.0,
        "Inclination(deg)": 53.0,
        "Latitude(deg)": -50.80258999933284,
        "Longitude(deg)": 11.132503241204665,
        "Mean Anomaly(deg)": -104.51620074309258,
        "RAAN(deg)": 224.99169967876043,
        "Satellite Name": "Starlink Shell 1 1005",
        "Satellite Number": 1005,
        "Semi-Major Axis(m)": 6931778.249405717,
        "Time(s)": 160
    },
    {
        "Altitude(m)": 571007.3493187753,
        "Argument of Periapsis(deg)": 0.0059258341516910265,
        "Eccentricity": 0.0,
        "Inclination(deg)": 53.0,
        "Latitude(deg)": -50.995661967988035,
        "Longitude(deg)": 12.03086469391135,
        "Mean Anomaly(deg)": -103.88936953953582,
        "RAAN(deg)": 224.99118090868296,
        "Satellite Name": "Starlink Shell 1 1005",
        "Satellite Number": 1005,
        "Semi-Major Axis(m)": 6931778.249405717,
        "Time(s)": 170
    },
    {
        "Altitude(m)": 571080.273139353,
        "Argument of Periapsis(deg)": 0.006274412631202263,
        "Eccentricity": 0.0,
        "Inclination(deg)": 53.0,
        "Latitude(deg)": -51.181110150592,
        "Longitude(deg)": 12.936886602877019,
        "Mean Anomaly(deg)": -103.26253833597914,
        "RAAN(deg)": 224.99066213860547,
        "Satellite Name": "Starlink Shell 1 1005",
        "Satellite Number": 1005,
        "Semi-Major Axis(m)": 6931778.249405717,
        "Time(s)": 180
    }
]